OBJECT_NAME,OBJECT_ID,EPOCH,MEAN_MOTION,ECCENTRICITY,INCLINATION,RA_OF_ASC_NODE,ARG_OF_PERICENTER,MEAN_ANOMALY,EPHEMERIS_TYPE,CLASSIFICATION_TYPE,NORAD_CAT_ID,ELEMENT_SET_NO,REV_AT_EPOCH,BSTAR,MEAN_MOTION_DOT,MEAN_MOTION_DDOT
STARLINK-36604,2026-049A,2026-05-14T01:40:09.240960,15.33444891,.0001088,97.2773,155.8249,130.8439,229.2899,0,U,68142,999,966,.82511834E-3,.26657E-3,0
STARLINK-36995,2026-049B,2026-05-14T01:16:40.835424,15.33444436,.00014398,97.2847,155.8533,90.8190,269.3217,0,U,68143,999,966,.40104632E-3,.12894E-3,0
STARLINK-37020,2026-049C,2026-05-14T07:09:03.402720,15.33448240,.00010279,97.2852,156.1339,72.0865,288.0489,0,U,68144,999,970,.38587459E-3,.12404E-3,0
STARLINK-36244,2026-049D,2026-05-14T07:24:43.000992,15.33446610,.00010357,97.2858,156.1217,76.8011,283.3347,0,U,68145,999,970,.36077539E-3,.11591E-3,0
STARLINK-36980,2026-049E,2026-05-14T00:33:37.214496,15.33433730,.00009646,97.2849,155.8968,96.3785,263.7567,0,U,68146,999,966,.30748165E-3,.9861E-4,0
STARLINK-37055,2026-049F,2026-05-14T01:24:30.557664,15.33449452,.00018096,97.2829,155.8479,106.4673,253.6769,0,U,68147,999,966,.59981823E-3,.19342E-3,0
STARLINK-36981,2026-049G,2026-05-14T06:00:02.000160,15.37262453,.00017942,97.2849,156.0812,79.0811,340.9617,0,U,68148,999,584,-.69270656E-1,-.2259776E-1,0
STARLINK-36992,2026-049H,2026-05-14T02:11:29.420736,15.33453281,.00014242,97.2844,155.9562,95.6750,264.4655,0,U,68149,999,967,.3375639E-3,.10841E-3,0
STARLINK-37060,2026-049J,2026-05-14T00:49:16.314240,15.33441436,.00017402,97.2832,155.8793,94.2560,265.8881,0,U,68150,999,966,.36657675E-3,.11777E-3,0
STARLINK-37073,2026-049K,2026-05-14T06:00:02.000160,15.33438725,.00007767,97.2841,156.0771,90.8029,349.8412,0,U,68151,999,579,-.1039239E-2,-.33471E-3,0
STARLINK-37049,2026-049L,2026-05-14T00:29:42.123552,15.33458971,.00009681,97.2840,155.8979,114.7818,245.3526,0,U,68152,999,966,.35561256E-3,.11428E-3,0
STARLINK-37072,2026-049M,2026-05-14T07:20:47.954976,15.33448300,.00004171,97.2852,156.1228,99.1575,260.9714,0,U,68153,999,970,.38053868E-3,.12231E-3,0
STARLINK-36241,2026-049N,2026-05-14T00:17:56.806656,15.33454486,.00017805,97.2851,155.7562,102.2857,257.8585,0,U,68154,999,965,.51066764E-3,.16452E-3,0
STARLINK-37048,2026-049P,2026-05-14T00:21:51.692832,15.33451666,.00013583,97.2843,155.7555,105.2149,254.9244,0,U,68155,999,965,.40361761E-3,.1298E-3,0
STARLINK-36313,2026-049Q,2026-05-14T00:14:01.930848,15.33450332,.00016922,97.2835,155.7610,95.6389,264.5047,0,U,68156,999,965,.40433709E-3,.13003E-3,0
STARLINK-37064,2026-049R,2026-05-14T00:45:21.651840,15.33471519,.00008041,97.2841,155.8838,55.6060,304.5259,0,U,68157,999,966,.39851875E-3,.12823E-3,0
STARLINK-37069,2026-049S,2026-05-14T07:59:57.229728,15.33449897,.00008855,97.2824,156.0837,87.4002,272.7342,0,U,68158,999,970,.42713971E-3,.13742E-3,0
STARLINK-37053,2026-049T,2026-05-14T01:12:45.746208,15.33448708,.00018553,97.2848,155.8601,97.9258,262.2195,0,U,68159,999,966,.34499635E-3,.11081E-3,0
STARLINK-36306,2026-049U,2026-05-14T01:28:25.384224,15.33451276,.00018623,97.2828,155.8419,100.5177,259.6276,0,U,68160,999,966,.35215796E-3,.11313E-3,0
