STARLINK-36241
1 68154U 26049N   26134.01246304  .00016452  00000+0  51067-3 0  9990
2 68154  97.2851 155.7562 0001780 102.2857 257.8585 15.33454486  9653
STARLINK-36244
1 68145U 26049D   26134.30883103  .00011591  00000+0  36078-3 0  9990
2 68145  97.2858 156.1217 0001035  76.8011 283.3347 15.33446610  9709
STARLINK-36306
1 68160U 26049U   26134.06140491  .00011313  00000+0  35216-3 0  9991
2 68160  97.2828 155.8419 0001862 100.5177 259.6276 15.33451276  9665
STARLINK-36313
1 68156U 26049Q   26134.00974457  .00013003  00000+0  40434-3 0  9993
2 68156  97.2835 155.7610 0001692  95.6389 264.5047 15.33450332  9652
STARLINK-36604
1 68142U 26049A   26134.06955140  .00026657  00000+0  82512-3 0  9994
2 68142  97.2773 155.8249 0001088 130.8439 229.2899 15.33444891  9661
STARLINK-36980
1 68146U 26049E   26134.02334739  .00009861  00000+0  30748-3 0  9991
2 68146  97.2849 155.8968 0000964  96.3785 263.7567 15.33433730  9664
STARLINK-36981
1 68148U 26049G   26134.25002315 -.02259776  00000+0 -69271-1 0  9997
2 68148  97.2849 156.0812 0001794  79.0811 340.9617 15.37262453  5843
STARLINK-36992
1 68149U 26049H   26134.09131274  .00010841  00000+0  33756-3 0  9992
2 68149  97.2844 155.9562 0001424  95.6750 264.4655 15.33453281  9679
STARLINK-36995
1 68143U 26049B   26134.05325041  .00012894  00000+0  40105-3 0  9995
2 68143  97.2847 155.8533 0001439  90.8190 269.3217 15.33444436  9663
STARLINK-37020
1 68144U 26049C   26134.29795605  .00012404  00000+0  38587-3 0  9997
2 68144  97.2852 156.1339 0001027  72.0865 288.0489 15.33448240  9703
STARLINK-37048
1 68155U 26049P   26134.01518163  .00012980  00000+0  40362-3 0  9994
2 68155  97.2843 155.7555 0001358 105.2149 254.9244 15.33451666  9652
STARLINK-37049
1 68152U 26049L   26134.02062643  .00011428  00000+0  35561-3 0  9990
2 68152  97.2840 155.8979 0000968 114.7818 245.3526 15.33458971  9665
STARLINK-37053
1 68159U 26049T   26134.05052947  .00011081  00000+0  34500-3 0  9993
2 68159  97.2848 155.8601 0001855  97.9258 262.2195 15.33448708  9665
STARLINK-37055
1 68147U 26049F   26134.05868701  .00019342  00000+0  59982-3 0  9992
2 68147  97.2829 155.8479 0001809 106.4673 253.6769 15.33449452  9668
STARLINK-37060
1 68150U 26049J   26134.03421660  .00011777  00000+0  36658-3 0  9992
2 68150  97.2832 155.8793 0001740  94.2560 265.8881 15.33441436  9662
STARLINK-37064
1 68157U 26049R   26134.03150060  .00012823  00000+0  39852-3 0  9994
2 68157  97.2841 155.8838 0000804  55.6060 304.5259 15.33471519  9660
STARLINK-37069
1 68158U 26049S   26134.33330127  .00013742  00000+0  42714-3 0  9994
2 68158  97.2824 156.0837 0000885  87.4002 272.7342 15.33449897  9700
STARLINK-37072
1 68153U 26049M   26134.30611059  .00012231  00000+0  38054-3 0  9996
2 68153  97.2852 156.1228 0000417  99.1575 260.9714 15.33448300  9707
STARLINK-37073
1 68151U 26049K   26134.25002315 -.00033471  00000+0 -10392-2 0  9992
2 68151  97.2841 156.0771 0000776  90.8029 349.8412 15.33438725  5792
